TOKI                    
1 42820U 98067MU  18048.77220029  .00020257  00000-0  22565-3 0  9995
2 42820  51.6349 246.2601 0002940  86.4517 273.6814 15.62816452 35158
MAZAALAI (NUMSAT-1)     
1 42822U 98067MW  18048.78861795  .00019898  00000-0  22327-3 0  9994
2 42822  51.6351 246.3724 0003003  91.8948 268.2390 15.62640990 35138
BRAC ONNESHA            
1 42823U 98067MX  18048.78969904  .00020648  00000-0  23104-3 0  9995
2 42823  51.6357 246.3895 0005871 106.1338 254.0303 15.62675007 35158
NIGERIAEDUSAT-1         
1 42824U 98067MY  18048.80184339  .00020331  00000-0  22869-3 0  9996
2 42824  51.6362 246.4794 0005775 107.4893 252.6733 15.62551256 35124
SILU-1 (SILKROAD 1)     
1 42903U 17021F   18049.48212963  .00019916  00000-0  18874-3 0  9993
2 42903  42.7816 324.4765 0010345 195.2486 150.0228 15.66474408 31273
MIRATA                  
1 43015U 17073C   18048.86557982  .00001778  00000-0  14725-3 0  9997
2 43015  97.6973 344.9763 0258093 300.1523  57.4341 14.77816967 13513
ASTERIA                 
1 43020U 98067NH  18049.09114630  .00009370  00000-0  13603-3 0  9990
2 43020  51.6385 251.4234 0002945  91.4899 268.6430 15.56571354 13926
DELLINGR (RBLE)         
1 43021U 98067NJ  18049.17679166  .00007225  00000-0  10919-3 0  9994
2 43021  51.6384 251.2427 0002736  91.9402 268.1902 15.55876475 13932
TECHEDSAT 6             
1 43026U 98067NK  18049.55495881  .00079235  00000-0  79229-3 0  9990
2 43026  51.6351 246.2571 0003223 180.2768 179.8226 15.64881224 13939
OSIRIS-3U               
1 43027U 98067NL  18049.16140462  .00024002  00000-0  31563-3 0  9991
2 43027  51.6372 250.3905 0003193  81.0896 279.0458 15.58344440 13821
AEROCUBE 7B             
1 43042U 17071F   18048.79281219  .00003773  00000-0  10963-3 0  9991
2 43042  51.6382 262.8164 0005428 186.1888 173.9029 15.38010098 11220
AEROCUBE 7C             
1 43043U 17071G   18048.85742333  .00003561  00000-0  10405-3 0  9994
2 43043  51.6383 262.4987 0005374 186.2422 173.8495 15.38017620 11208
CHEFSAT                 
1 43044U 17071H   18048.84945202  .00005710  00000-0  15876-3 0  9999
2 43044  51.6383 262.4480 0005431 182.3178 177.7782 15.38357748 11206
ASGARDIA 1              
1 43049U 17071N   18049.04432025  .00003157  00000-0  92934-4 0  9995
2 43049  51.6384 261.4989 0002568 198.8193 161.2696 15.38179333 11228
ISARA                   
1 43050U 17071P   18048.84543869  .00005052  00000-0  14168-3 0  9991
2 43050  51.6384 262.4239 0002665 192.5297 167.5621 15.38357389 11207
FAUNA                   
1 43052U 17071R   18048.84634220  .00003379  00000-0  98504-4 0  9992
2 43052  51.6386 262.4299 0002560 193.0120 167.0798 15.38258999 11197
MICROMAS-2A             
1 43132U 18004X   18049.21371555  .00001429  00000-0  65124-4 0  9995
2 43132  97.5500 111.5015 0010983 147.7048 212.4862 15.22292838  5616
